start=new Date('2023-03-17T00:00:00.000Z').valueOf();
sats=[{"DECAY_DATE":null,"MEAN_ELEMENT_THEORY":"SGP4","ELEMENT_SET_NO":"999","MEAN_ANOMALY":"85.2720","MEAN_MOTION_DDOT":"0.0000000000000","CENTER_NAME":"EARTH","OBJECT_TYPE":"PAYLOAD","LAUNCH_DATE":"2023-02-12","RA_OF_ASC_NODE":"160.3596","MEAN_MOTION_DOT":"-0.00429708","COUNTRY_CODE":"US","INCLINATION":"42.9985","SITE":"AFETR","MEAN_MOTION":"15.68419931","EPHEMERIS_TYPE":"0","ARG_OF_PERICENTER":"274.8054","REF_FRAME":"TEME","ECCENTRICITY":"0.00008100","EPOCH":"2023-03-16T16:44:36.335328","PERIOD":"91.812","RCS_SIZE":"LARGE","NORAD_CAT_ID":"55605","GP_ID":"228285291","FILE":"3862592","REV_AT_EPOCH":"512","BSTAR":"-0.00389620000000","PERIAPSIS":"362.877","SEMIMAJOR_AXIS":"6741.558","APOAPSIS":"363.969","OBJECT_NAME":"STARLINK-5725","TLE_LINE1":"1 55605U 23020AN  23075.69764277 -.00429708  00000-0 -38962-2 0  9995","TIME_SYSTEM":"UTC","CLASSIFICATION_TYPE":"U","OBJECT_ID":"2023-020AN","TLE_LINE2":"2 55605  42.9985 160.3596 0000810 274.8054  85.2720 15.68419931  5128"},{"INCLINATION":"42.9984","SITE":"AFETR","COUNTRY_CODE":"US","MEAN_MOTION_DOT":"-0.00963967","OBJECT_TYPE":"PAYLOAD","LAUNCH_DATE":"2023-02-12","RA_OF_ASC_NODE":"159.0425","DECAY_DATE":null,"MEAN_ANOMALY":"247.1246","ELEMENT_SET_NO":"999","MEAN_ELEMENT_THEORY":"SGP4","MEAN_MOTION_DDOT":"0.0000000000000","CENTER_NAME":"EARTH","FILE":"3862592","EPOCH":"2023-03-16T22:00:00.999936","PERIOD":"91.891","RCS_SIZE":"LARGE","NORAD_CAT_ID":"55607","GP_ID":"228286542","MEAN_MOTION":"15.67066922","EPHEMERIS_TYPE":"0","REF_FRAME":"TEME","ARG_OF_PERICENTER":"271.8932","ECCENTRICITY":"0.00014890","PERIAPSIS":"366.298","SEMIMAJOR_AXIS":"6745.438","BSTAR":"-0.00969010000000","REV_AT_EPOCH":"130","OBJECT_ID":"2023-020AQ","TLE_LINE2":"2 55607  42.9984 159.0425 0001489 271.8932 247.1246 15.67066922  1305","CLASSIFICATION_TYPE":"U","TIME_SYSTEM":"UTC","TLE_LINE1":"1 55607U 23020AQ  23075.91667824 -.00963967  00000-0 -96901-2 0  9999","APOAPSIS":"368.307","OBJECT_NAME":"STARLINK-5700"},{"FILE":"3862499","EPOCH":"2023-03-17T00:00:00.999648","PERIOD":"91.904","GP_ID":"228258176","NORAD_CAT_ID":"55608","RCS_SIZE":"LARGE","MEAN_MOTION":"15.66851640","REF_FRAME":"TEME","ARG_OF_PERICENTER":"269.0884","ECCENTRICITY":"0.00014540","EPHEMERIS_TYPE":"0","INCLINATION":"42.9988","SITE":"AFETR","COUNTRY_CODE":"US","MEAN_MOTION_DOT":"-0.00895025","OBJECT_TYPE":"PAYLOAD","LAUNCH_DATE":"2023-02-12","RA_OF_ASC_NODE":"158.5412","DECAY_DATE":null,"MEAN_ELEMENT_THEORY":"SGP4","MEAN_ANOMALY":"1.7056","ELEMENT_SET_NO":"999","CENTER_NAME":"EARTH","MEAN_MOTION_DDOT":"0.0000000000000","OBJECT_ID":"2023-020AR","TLE_LINE2":"2 55608  42.9988 158.5412 0001454 269.0884   1.7056 15.66851640  5166","CLASSIFICATION_TYPE":"U","TIME_SYSTEM":"UTC","TLE_LINE1":"1 55608U 23020AR  23076.00001157 -.00895025  00000-0 -90111-2 0  9998","OBJECT_NAME":"STARLINK-5726","APOAPSIS":"368.902","PERIAPSIS":"366.940","SEMIMAJOR_AXIS":"6746.056","BSTAR":"-0.00901110000000","REV_AT_EPOCH":"516"},{"MEAN_ELEMENT_THEORY":"SGP4","DECAY_DATE":null,"MEAN_ANOMALY":"102.1515","ELEMENT_SET_NO":"999","MEAN_MOTION_DDOT":"0.0000000000000","CENTER_NAME":"EARTH","OBJECT_TYPE":"PAYLOAD","LAUNCH_DATE":"2023-02-12","RA_OF_ASC_NODE":"160.3602","COUNTRY_CODE":"US","MEAN_MOTION_DOT":"-0.00421272","INCLINATION":"42.9995","SITE":"AFETR","MEAN_MOTION":"15.68588157","EPHEMERIS_TYPE":"0","ECCENTRICITY":"0.00051420","ARG_OF_PERICENTER":"257.8776","REF_FRAME":"TEME","PERIOD":"91.802","EPOCH":"2023-03-16T16:44:16.881504","RCS_SIZE":"LARGE","NORAD_CAT_ID":"55609","GP_ID":"228285541","FILE":"3862592","REV_AT_EPOCH":"512","BSTAR":"-0.00378420000000","PERIAPSIS":"359.475","SEMIMAJOR_AXIS":"6741.076","APOAPSIS":"366.407","OBJECT_NAME":"STARLINK-5719","TLE_LINE1":"1 55609U 23020AS  23075.69741761 -.00421272  00000-0 -37842-2 0  9996","CLASSIFICATION_TYPE":"U","TIME_SYSTEM":"UTC","OBJECT_ID":"2023-020AS","TLE_LINE2":"2 55609  42.9995 160.3602 0005142 257.8776 102.1515 15.68588157  5124"},{"SITE":"AFETR","INCLINATION":"42.9983","MEAN_MOTION_DOT":"-0.00967259","COUNTRY_CODE":"US","RA_OF_ASC_NODE":"159.0348","LAUNCH_DATE":"2023-02-12","OBJECT_TYPE":"PAYLOAD","CENTER_NAME":"EARTH","MEAN_MOTION_DDOT":"0.0000000000000","ELEMENT_SET_NO":"999","DECAY_DATE":null,"MEAN_ELEMENT_THEORY":"SGP4","MEAN_ANOMALY":"251.4228","FILE":"3862592","GP_ID":"228285791","RCS_SIZE":"LARGE","NORAD_CAT_ID":"55610","EPOCH":"2023-03-16T22:00:00.999936","PERIOD":"91.892","REF_FRAME":"TEME","ECCENTRICITY":"0.00014630","ARG_OF_PERICENTER":"271.0604","EPHEMERIS_TYPE":"0","MEAN_MOTION":"15.67056805","SEMIMAJOR_AXIS":"6745.467","PERIAPSIS":"366.345","BSTAR":"-0.00973070000000","REV_AT_EPOCH":"130","TLE_LINE2":"2 55610  42.9983 159.0348 0001463 271.0604 251.4228 15.67056805  1309","OBJECT_ID":"2023-020AT","CLASSIFICATION_TYPE":"U","TIME_SYSTEM":"UTC","TLE_LINE1":"1 55610U 23020AT  23075.91667824 -.00967259  00000-0 -97307-2 0  9992","OBJECT_NAME":"STARLINK-5722","APOAPSIS":"368.319"},{"INCLINATION":"42.9986","SITE":"AFETR","MEAN_MOTION_DOT":"-0.00978902","COUNTRY_CODE":"US","OBJECT_TYPE":"PAYLOAD","LAUNCH_DATE":"2023-02-12","RA_OF_ASC_NODE":"159.0362","MEAN_ELEMENT_THEORY":"SGP4","DECAY_DATE":null,"MEAN_ANOMALY":"248.7930","ELEMENT_SET_NO":"999","MEAN_MOTION_DDOT":"0.0000000000000","CENTER_NAME":"EARTH","FILE":"3862592","EPOCH":"2023-03-16T22:00:00.999936","PERIOD":"91.892","RCS_SIZE":"LARGE","NORAD_CAT_ID":"55611","GP_ID":"228286043","MEAN_MOTION":"15.67059730","EPHEMERIS_TYPE":"0","ARG_OF_PERICENTER":"273.0635","ECCENTRICITY":"0.00013530","REF_FRAME":"TEME","PERIAPSIS":"366.411","SEMIMAJOR_AXIS":"6745.458","BSTAR":"-0.00985920000000","REV_AT_EPOCH":"130","OBJECT_ID":"2023-020AU","TLE_LINE2":"2 55611  42.9986 159.0362 0001353 273.0635 248.7930 15.67059730  1302","TIME_SYSTEM":"UTC","CLASSIFICATION_TYPE":"U","TLE_LINE1":"1 55611U 23020AU  23075.91667824 -.00978902  00000-0 -98592-2 0  9997","APOAPSIS":"368.236","OBJECT_NAME":"STARLINK-5730"},{"INCLINATION":"42.9984","SITE":"AFETR","MEAN_MOTION_DOT":"-0.00965499","COUNTRY_CODE":"US","OBJECT_TYPE":"PAYLOAD","RA_OF_ASC_NODE":"159.0326","LAUNCH_DATE":"2023-02-12","ELEMENT_SET_NO":"999","DECAY_DATE":null,"MEAN_ELEMENT_THEORY":"SGP4","MEAN_ANOMALY":"255.0232","CENTER_NAME":"EARTH","MEAN_MOTION_DDOT":"0.0000000000000","FILE":"3862592","EPOCH":"2023-03-16T22:00:00.999936","PERIOD":"91.892","GP_ID":"228286793","NORAD_CAT_ID":"55612","RCS_SIZE":"LARGE","MEAN_MOTION":"15.67058657","REF_FRAME":"TEME","ECCENTRICITY":"0.00014500","ARG_OF_PERICENTER":"268.0884","EPHEMERIS_TYPE":"0","PERIAPSIS":"366.348","SEMIMAJOR_AXIS":"6745.462","BSTAR":"-0.00971050000000","REV_AT_EPOCH":"130","OBJECT_ID":"2023-020AV","TLE_LINE2":"2 55612  42.9984 159.0326 0001450 268.0884 255.0232 15.67058657  1302","CLASSIFICATION_TYPE":"U","TIME_SYSTEM":"UTC","TLE_LINE1":"1 55612U 23020AV  23075.91667824 -.00965499  00000-0 -97105-2 0  9994","OBJECT_NAME":"STARLINK-5734","APOAPSIS":"368.305"},{"TLE_LINE1":"1 55613U 23020AW  23075.91667824 -.00012357  00000-0 -10430-3 0  9998","APOAPSIS":"365.738","OBJECT_NAME":"STARLINK-5715","OBJECT_ID":"2023-020AW","TLE_LINE2":"2 55613  42.9984 159.0357 0002064 272.0106 249.6959 15.68097592  1308","TIME_SYSTEM":"UTC","CLASSIFICATION_TYPE":"U","BSTAR":"-0.00010430000000","REV_AT_EPOCH":"130","PERIAPSIS":"362.955","SEMIMAJOR_AXIS":"6742.482","MEAN_MOTION":"15.68097592","EPHEMERIS_TYPE":"0","REF_FRAME":"TEME","ECCENTRICITY":"0.00020640","ARG_OF_PERICENTER":"272.0106","FILE":"3862592","EPOCH":"2023-03-16T22:00:00.999936","PERIOD":"91.831","RCS_SIZE":"LARGE","NORAD_CAT_ID":"55613","GP_ID":"228285042","OBJECT_TYPE":"PAYLOAD","RA_OF_ASC_NODE":"159.0357","LAUNCH_DATE":"2023-02-12","MEAN_ELEMENT_THEORY":"SGP4","DECAY_DATE":null,"ELEMENT_SET_NO":"999","MEAN_ANOMALY":"249.6959","MEAN_MOTION_DDOT":"0.0000000000000","CENTER_NAME":"EARTH","INCLINATION":"42.9984","SITE":"AFETR","COUNTRY_CODE":"US","MEAN_MOTION_DOT":"-0.00012357"},{"MEAN_MOTION":"15.74138945","ECCENTRICITY":"0.00008410","REF_FRAME":"TEME","ARG_OF_PERICENTER":"270.0417","EPHEMERIS_TYPE":"0","PERIOD":"91.479","EPOCH":"2023-03-16T22:00:00.999936","GP_ID":"228285292","NORAD_CAT_ID":"55614","RCS_SIZE":"LARGE","FILE":"3862592","DECAY_DATE":null,"MEAN_ELEMENT_THEORY":"SGP4","MEAN_ANOMALY":"199.5700","ELEMENT_SET_NO":"999","CENTER_NAME":"EARTH","MEAN_MOTION_DDOT":"0.0000000000000","OBJECT_TYPE":"PAYLOAD","RA_OF_ASC_NODE":"158.2758","LAUNCH_DATE":"2023-02-12","MEAN_MOTION_DOT":"-0.00497495","COUNTRY_CODE":"US","INCLINATION":"42.9984","SITE":"AFETR","OBJECT_NAME":"STARLINK-5714","APOAPSIS":"347.650","TLE_LINE1":"1 55614U 23020AX  23075.91667824 -.00497495  00000-0 -35685-2 0  9997","CLASSIFICATION_TYPE":"U","TIME_SYSTEM":"UTC","OBJECT_ID":"2023-020AX","TLE_LINE2":"2 55614  42.9984 158.2758 0000841 270.0417 199.5700 15.74138945  1301","REV_AT_EPOCH":"130","BSTAR":"-0.00356850000000","PERIAPSIS":"346.519","SEMIMAJOR_AXIS":"6725.220"},{"BSTAR":"-0.00970690000000","REV_AT_EPOCH":"130","PERIAPSIS":"366.334","SEMIMAJOR_AXIS":"6745.451","TLE_LINE1":"1 55615U 23020AY  23075.91667824 -.00965311  00000-0 -97069-2 0  9999","APOAPSIS":"368.298","OBJECT_NAME":"STARLINK-5712","OBJECT_ID":"2023-020AY","TLE_LINE2":"2 55615  42.9983 159.0313 0001456 272.8888 250.8493 15.67062412  1309","TIME_SYSTEM":"UTC","CLASSIFICATION_TYPE":"U","OBJECT_TYPE":"PAYLOAD","RA_OF_ASC_NODE":"159.0313","LAUNCH_DATE":"2023-02-12","MEAN_ANOMALY":"250.8493","DECAY_DATE":null,"ELEMENT_SET_NO":"999","MEAN_ELEMENT_THEORY":"SGP4","MEAN_MOTION_DDOT":"0.0000000000000","CENTER_NAME":"EARTH","INCLINATION":"42.9983","SITE":"AFETR","MEAN_MOTION_DOT":"-0.00965311","COUNTRY_CODE":"US","MEAN_MOTION":"15.67062412","EPHEMERIS_TYPE":"0","ARG_OF_PERICENTER":"272.8888","REF_FRAME":"TEME","ECCENTRICITY":"0.00014560","FILE":"3862592","EPOCH":"2023-03-16T22:00:00.999936","PERIOD":"91.892","RCS_SIZE":"LARGE","NORAD_CAT_ID":"55615","GP_ID":"228286543"}];
